{
  "norad_id": 60604,
  "name": "STARLINK-32039",
  "history": [
    {
      "epoch": "2026-03-28T20:00:09.959904",
      "apogee_km": 475.99921890542737,
      "perigee_km": 474.4703687256633,
      "latitude_deg": 16.628175815945376,
      "longitude_deg": -39.588933440158144,
      "semi_major_axis_km": 6853.371793815545,
      "eccentricity": 0.00011154,
      "inclination_deg": 53.1607,
      "raan_deg": 220.8512,
      "arg_perigee_deg": 96.5688,
      "mean_anomaly_deg": 263.544,
      "mean_motion_rev_day": 15.30193394
    }
  ]
}